NORAD_CAT_ID,OBJECT_NAME,OBJECT_TYPE,EPOCH,MEAN_MOTION,ECCENTRICITY,INCLINATION,RA_OF_ASC_NODE,ARG_OF_PERICENTER,MEAN_ANOMALY,BSTAR,MEAN_MOTION_DOT,MEAN_MOTION_DDOT,TLE_LINE0,TLE_LINE1,TLE_LINE2,SEMIMAJOR_AXIS,PERIOD,APOGEE,PERIGEE,DECAYED
51127.0,STARLINK-3370,PAYLOAD,2022-09-19 07:34:43,15.08838397,0.0001605,53.2179,228.5919,57.5611,302.5536,0.00010728,1.42e-05,0.0,0 STARLINK-3370,1 51127U 22005Z   22262.31578082  .00001420  00000-0  10728-3 0  9991,2 51127  53.2179 228.5919 0001605  57.5611 302.5536 15.08838397 37408,6917.885,95.438,540.861,538.64,0.0
51127.0,STARLINK-3370,PAYLOAD,2022-09-20 07:25:30,15.0884557,0.0001796,53.2179,224.1318,58.0516,302.065,3.8482e-05,3.24e-06,0.0,0 STARLINK-3370,1 51127U 22005Z   22263.30937680  .00000324  00000-0  38482-4 0  9994,2 51127  53.2179 224.1318 0001796  58.0516 302.0650 15.08845570 37553,6917.863,95.437,540.971,538.486,0.0
51127.0,STARLINK-3370,PAYLOAD,2022-09-21 07:16:18,15.08832323,0.000183,53.2171,219.6728,46.7956,313.3189,-4.360100000000001e-05,-9.82e-06,0.0,0 STARLINK-3370,1 51127U 22005Z   22264.30298876 -.00000982  00000-0 -43601-4 0  9993,2 51127  53.2171 219.6728 0001830  46.7956 313.3189 15.08832323 38825,6917.904,95.438,541.035,538.503,0.0
51127.0,STARLINK-3370,PAYLOAD,2022-09-22 13:28:37,15.08837456,0.0001826,53.2183,214.0223,58.5602,301.5569,2.4044e-05,9.5e-07,0.0,0 STARLINK-3370,1 51127U 22005Z   22265.56154843  .00000095  00000-0  24044-4 0  9990,2 51127  53.2183 214.0223 0001826  58.5602 301.5569 15.08837456 37890,6917.888000000001,95.438,541.016,538.49,0.0
51127.0,STARLINK-3370,PAYLOAD,2022-09-23 03:47:06,15.08832834,0.0001598,53.2171,211.3477,52.5961,307.5176,4.8648e-05,4.86e-06,0.0,0 STARLINK-3370,1 51127U 22005Z   22266.15771258  .00000486  00000-0  48648-4 0  9991,2 51127  53.2171 211.3477 0001598  52.5961 307.5176 15.08832834 39107,6917.901999999999,95.438,540.873,538.6619999999998,0.0
51127.0,STARLINK-3370,PAYLOAD,2022-09-24 03:37:52,15.08837824,0.0001087,53.2153,206.8869,56.9697,303.14,0.00011467,1.538e-05,0.0,0 STARLINK-3370,1 51127U 22005Z   22267.15130554  .00001538  00000-0  11467-3 0  9997,2 51127  53.2153 206.8869 0001087  56.9697 303.1400 15.08837824 39250,6917.887,95.438,540.504,539.0,0.0
51127.0,STARLINK-3370,PAYLOAD,2022-09-24 13:10:11,15.08841817,0.0001576999999999,53.2165,205.1012,48.9501,311.1628,0.00012566,1.713e-05,0.0,0 STARLINK-3370,1 51127U 22005Z   22267.54874450  .00001713  00000-0  12566-3 0  9996,2 51127  53.2165 205.1012 0001577  48.9501 311.1628 15.08841817 38194,6917.875,95.437,540.831,538.649,0.0
51127.0,STARLINK-3370,PAYLOAD,2022-09-25 13:00:58,15.08843545,0.0001838,53.2178,200.641,53.3053,306.8107,8.9777e-05,1.141e-05,0.0,0 STARLINK-3370,1 51127U 22005Z   22268.54234470  .00001141  00000-0  89777-4 0  9993,2 51127  53.2178 200.6410 0001838  53.3053 306.8107 15.08843545 39466,6917.87,95.437,541.006,538.4630000000002,0.0
51127.0,STARLINK-3370,PAYLOAD,2022-09-26 01:44:03,15.08837417,0.0001789,53.218,198.2625,55.7397,304.3764,3.4952e-05,2.68e-06,0.0,0 STARLINK-3370,1 51127U 22005Z   22269.07226775  .00000268  00000-0  34952-4 0  9995,2 51127  53.2180 198.2625 0001789  55.7397 304.3764 15.08837417 38429,6917.888000000001,95.438,540.991,538.516,0.0
51127.0,STARLINK-3370,PAYLOAD,2022-09-27 01:34:51,15.08829465,0.0001844999999999,53.2186,193.8028,55.6898,304.4269,-5.1207e-05,-1.103e-05,0.0,0 STARLINK-3370,1 51127U 22005Z   22270.06587946 -.00001103  00000-0 -51207-4 0  9999,2 51127  53.2186 193.8028 0001845  55.6898 304.4269 15.08829465 38572,6917.913000000001,95.438,541.054,538.501,0.0
51127.0,STARLINK-3370,PAYLOAD,2022-09-28 03:01:00,15.08846824,0.0001831,53.2189,189.046,56.4213,303.6954,0.00022369,3.274e-05,0.0,0 STARLINK-3370,1 51127U 22005Z   22271.12570151  .00003274  00000-0  22369-3 0  9992,2 51127  53.2189 189.0460 0001831  56.4213 303.6954 15.08846824 39859,6917.86,95.437,540.991,538.4580000000002,0.0
51127.0,STARLINK-3370,PAYLOAD,2022-09-28 04:36:23,15.08850472,0.0001768,53.2183,188.7464,52.057,308.0582,0.00025373,3.753e-05,0.0,0 STARLINK-3370,1 51127U 22005Z   22271.19193853  .00003753  00000-0  25373-3 0  9999,2 51127  53.2183 188.7464 0001768  52.0570 308.0582 15.08850472 38747,6917.848000000001,95.437,540.936,538.49,0.0
51127.0,STARLINK-3370,PAYLOAD,2022-09-28 18:54:51,15.08845362,0.0001779,53.2186,186.0696,54.9772,305.1387,0.00020411,2.962e-05,0.0,0 STARLINK-3370,1 51127U 22005Z   22271.78810109  .00002962  00000-0  20411-3 0  9993,2 51127  53.2186 186.0696 0001779  54.9772 305.1387 15.08845362 38838,6917.864000000001,95.437,540.96,538.498,0.0
51127.0,STARLINK-3370,PAYLOAD,2022-09-29 02:51:49,15.08826189,0.0001618,53.2183,184.5863,47.1041,313.0086,-6.29e-05,-1.289e-05,0.0,0 STARLINK-3370,1 51127U 22005Z   22272.11932272 -.00001289  00000-0 -62900-4 0  9990,2 51127  53.2183 184.5863 0001618  47.1041 313.0086 15.08826189 40001,6917.9230000000025,95.438,540.9069999999998,538.668,0.0
51127.0,STARLINK-3370,PAYLOAD,2022-09-29 10:48:45,15.08818314,0.0001803,53.2184,183.0994,44.2528,315.8608,-0.0001286999999999,-2.335e-05,0.0,0 STARLINK-3370,1 51127U 22005Z   22272.45053105 -.00002335  00000-0 -12870-3 0  9999,2 51127  53.2184 183.0994 0001803  44.2528 315.8608 15.08818314 38935,6917.946999999999,95.439,541.059,538.564,0.0
51127.0,STARLINK-3370,PAYLOAD,2022-09-30 04:18:00,15.0883113,0.0001756,53.2179,179.8269,47.2567,312.8573,-0.00014544,-2.601e-05,0.0,0 STARLINK-3370,1 51127U 22005Z   22273.17917255 -.00002601  00000-0 -14544-3 0  9990,2 51127  53.2179 179.8269 0001756  47.2567 312.8573 15.08831130 40167,6917.908,95.438,540.987,538.558,0.0
51127.0,STARLINK-3370,PAYLOAD,2022-09-30 10:39:32,15.08839492,0.0001729,53.2178,178.6376,47.7345,312.3794,-9.9352e-05,-1.869e-05,0.0,0 STARLINK-3370,1 51127U 22005Z   22273.44412594 -.00001869  00000-0 -99352-4 0  9992,2 51127  53.2178 178.6376 0001729  47.7345 312.3794 15.08839492 40205,6917.882,95.438,540.943,538.5509999999998,0.0
51127.0,STARLINK-3370,PAYLOAD,2022-09-30 17:01:04,15.08841484,0.0001688,53.2176,177.4479,49.7702,310.3437,2.8836e-05,1.71e-06,0.0,0 STARLINK-3370,1 51127U 22005Z   22273.70908291  .00000171  00000-0  28836-4 0  9997,2 51127  53.2176 177.4479 0001688  49.7702 310.3437 15.08841484 39122,6917.876,95.437,540.909,538.573,0.0
51127.0,STARLINK-3370,PAYLOAD,2022-10-01 02:33:23,15.08851484,0.000173,53.2167,175.6641,44.3886,315.7245,0.00028401,4.236e-05,0.0,0 STARLINK-3370,1 51127U 22005Z   22274.10651994  .00004236  00000-0  28401-3 0  9990,2 51127  53.2167 175.6641 0001730  44.3886 315.7245 15.08851484 40304,6917.845,95.437,540.9069999999998,538.513,0.0
51127.0,STARLINK-3370,PAYLOAD,2022-10-01 10:30:19,15.08848348,0.0001674,53.2163,174.1774,47.3715,312.7418,0.00056085,8.651e-05,0.0,0 STARLINK-3370,1 51127U 22005Z   22274.43772665  .00008651  00000-0  56085-3 0  9999,2 51127  53.2163 174.1774 0001674  47.3715 312.7418 15.08848348 39236,6917.855,95.437,540.878,538.562,0.0
51127.0,STARLINK-3370,PAYLOAD,2022-10-02 02:24:10,15.08849825,0.0001701,53.2159,171.2037,48.394,311.7198,0.00026057,3.862e-05,0.0,0 STARLINK-3370,1 51127U 22005Z   22275.10012453  .00003862  00000-0  26057-3 0  9991,2 51127  53.2159 171.2037 0001701  48.3940 311.7198 15.08849825 40454,6917.85,95.437,540.8919999999998,538.539,0.0
51127.0,STARLINK-3370,PAYLOAD,2022-10-02 10:21:06,15.088408800000002,0.0001867,53.2158,169.717,51.3959,308.72,9.4328e-05,1.213e-05,0.0,0 STARLINK-3370,1 51127U 22005Z   22275.43132787  .00001213  00000-0  94328-4 0  9995,2 51127  53.2158 169.7170 0001867  51.3959 308.7200 15.08840880 40508,6917.878000000002,95.437,541.034,538.451,0.0
51127.0,STARLINK-3370,PAYLOAD,2022-10-02 16:42:39,15.0884263,0.0001696999999999,53.2159,168.5267,51.666,308.4485,0.00055219,8.512e-05,0.0,0 STARLINK-3370,1 51127U 22005Z   22275.69628802  .00008512  00000-0  55219-3 0  9995,2 51127  53.2159 168.5267 0001697  51.6660 308.4485 15.08842630 39422,6917.871999999999,95.437,540.911,538.563,0.0
51127.0,STARLINK-3370,PAYLOAD,2022-10-03 02:14:57,15.088619199999998,0.000167,53.2157,166.7429,50.4014,309.7125,0.0012985,0.0002044999999999,0.0,0 STARLINK-3370,1 51127U 22005Z   22276.09372457  .00020450  00000-0  12985-2 0  9999,2 51127  53.2157 166.7429 0001670  50.4014 309.7125 15.08861920 40601,6917.813,95.436,540.8340000000002,538.523,0.0
51127.0,STARLINK-3370,PAYLOAD,2022-10-03 10:11:52,15.08876696,0.0001686,53.2158,165.25599999999997,49.4151,310.6987,0.0014847,0.00023444,0.0,0 STARLINK-3370,1 51127U 22005Z   22276.42491844  .00023444  00000-0  14847-2 0  9993,2 51127  53.2158 165.2560 0001686  49.4151 310.6987 15.08876696 39532,6917.768,95.435,540.8,538.467,0.0
51127.0,STARLINK-3370,PAYLOAD,2022-10-03 16:33:25,15.0886981,0.0001691,53.2149,164.0675,50.9922,309.1221,0.00081613,0.00012735,0.0,0 STARLINK-3370,1 51127U 22005Z   22276.68987452  .00012735  00000-0  81613-3 0  9993,2 51127  53.2149 164.0675 0001691  50.9922 309.1221 15.08869810 40698,6917.7890000000025,95.436,540.8240000000002,538.484,0.0
51127.0,STARLINK-3370,PAYLOAD,2022-10-03 22:54:57,15.08862597,0.0001788,53.2175,162.8772,52.2259,307.8895,0.00039601,6.024e-05,0.0,0 STARLINK-3370,1 51127U 22005Z   22276.95483228  .00006024  00000-0  39601-3 0  9999,2 51127  53.2175 162.8772 0001788  52.2259 307.8895 15.08862597 40738,6917.811,95.436,540.913,538.439,0.0
51127.0,STARLINK-3370,PAYLOAD,2022-10-04 10:02:39,15.08862649,0.0001771,53.2167,160.796,50.1843,309.9305,0.00035694,5.401e-05,0.0,0 STARLINK-3370,1 51127U 22005Z   22277.41850775  .00005401  00000-0  35694-3 0  9992,2 51127  53.2167 160.7960 0001771  50.1843 309.9305 15.08862649 39682,6917.811,95.436,540.901,538.451,0.0
51127.0,STARLINK-3370,PAYLOAD,2022-10-04 19:34:57,15.08861663,0.0001646,53.2167,159.0118,68.3397,291.777,0.00022021,3.2200000000000003e-05,0.0,0 STARLINK-3370,1 51127U 22005Z   22277.81594398  .00003220  00000-0  22021-3 0  9999,2 51127  53.2167 159.0118 0001646  68.3397 291.7770 15.08861663 40865,6917.814,95.436,540.818,538.5409999999998,0.0
